start=new Date('2023-01-20T00:00:00.000Z').valueOf();
sats=[{"ARG_OF_PERICENTER":"89.6433","TIME_SYSTEM":"UTC","REV_AT_EPOCH":"5764","APOAPSIS":"540.950","MEAN_MOTION_DOT":"0.00015800","MEAN_MOTION":"15.08843900","ECCENTRICITY":"0.00017590","INCLINATION":"53.2144","REF_FRAME":"TEME","OBJECT_TYPE":"PAYLOAD","PERIOD":"95.437","NORAD_CAT_ID":"50809","TLE_LINE1":"1 50809U 22001G   23019.38704684  .00015800  00000-0  10085-2 0  9992","GP_ID":"223497776","DECAY_DATE":null,"RA_OF_ASC_NODE":"260.5947","SEMIMAJOR_AXIS":"6917.868","ELEMENT_SET_NO":"999","EPOCH":"2023-01-19T09:17:20.846976","MEAN_ANOMALY":"270.4761","CLASSIFICATION_TYPE":"U","COUNTRY_CODE":"US","EPHEMERIS_TYPE":"0","RCS_SIZE":"LARGE","BSTAR":"0.00100850000000","MEAN_MOTION_DDOT":"0.0000000000000","OBJECT_NAME":"STARLINK-3232","SITE":"AFETR","PERIAPSIS":"538.517","LAUNCH_DATE":"2022-01-06","OBJECT_ID":"2022-001G","MEAN_ELEMENT_THEORY":"SGP4","FILE":"3754973","TLE_LINE2":"2 50809  53.2144 260.5947 0001759  89.6433 270.4761 15.08843900 57648","CENTER_NAME":"EARTH"},{"ELEMENT_SET_NO":"999","SEMIMAJOR_AXIS":"6917.901","RA_OF_ASC_NODE":"258.8392","DECAY_DATE":null,"EPOCH":"2023-01-19T18:39:04.030272","MEAN_ANOMALY":"266.4700","COUNTRY_CODE":"US","CLASSIFICATION_TYPE":"U","MEAN_MOTION_DDOT":"0.0000000000000","BSTAR":"-0.00006740400000","OBJECT_NAME":"STARLINK-3348","EPHEMERIS_TYPE":"0","RCS_SIZE":"LARGE","PERIAPSIS":"539.044","LAUNCH_DATE":"2022-01-06","SITE":"AFETR","CENTER_NAME":"EARTH","MEAN_ELEMENT_THEORY":"SGP4","OBJECT_ID":"2022-001H","FILE":"3755131","TLE_LINE2":"2 50810  53.2120 258.8392 0001044  93.6411 266.4700 15.08833327 58951","TIME_SYSTEM":"UTC","ARG_OF_PERICENTER":"93.6411","MEAN_MOTION_DOT":"-0.00001360","APOAPSIS":"540.488","REV_AT_EPOCH":"5895","MEAN_MOTION":"15.08833327","REF_FRAME":"TEME","ECCENTRICITY":"0.00010440","INCLINATION":"53.2120","PERIOD":"95.438","OBJECT_TYPE":"PAYLOAD","GP_ID":"223503691","NORAD_CAT_ID":"50810","TLE_LINE1":"1 50810U 22001H   23019.77712998 -.00001360  00000-0 -67404-4 0  9991"},{"GP_ID":"223498774","TLE_LINE1":"1 50811U 22001J   23019.37232999  .00000757  00000-0  65622-4 0  9993","NORAD_CAT_ID":"50811","PERIOD":"95.437","OBJECT_TYPE":"PAYLOAD","REF_FRAME":"TEME","INCLINATION":"53.2145","ECCENTRICITY":"0.00018120","MEAN_MOTION":"15.08846052","MEAN_MOTION_DOT":"0.00000757","APOAPSIS":"540.980","REV_AT_EPOCH":"5764","TIME_SYSTEM":"UTC","ARG_OF_PERICENTER":"87.8037","CENTER_NAME":"EARTH","FILE":"3754973","TLE_LINE2":"2 50811  53.2145 260.6542 0001812  87.8037 272.3162 15.08846052 57641","MEAN_ELEMENT_THEORY":"SGP4","OBJECT_ID":"2022-001J","LAUNCH_DATE":"2022-01-06","PERIAPSIS":"538.473","SITE":"AFETR","OBJECT_NAME":"STARLINK-3347","MEAN_MOTION_DDOT":"0.0000000000000","BSTAR":"0.00006562200000","RCS_SIZE":"LARGE","EPHEMERIS_TYPE":"0","COUNTRY_CODE":"US","CLASSIFICATION_TYPE":"U","MEAN_ANOMALY":"272.3162","EPOCH":"2023-01-19T08:56:09.311136","ELEMENT_SET_NO":"999","SEMIMAJOR_AXIS":"6917.862","RA_OF_ASC_NODE":"260.6542","DECAY_DATE":null},{"ARG_OF_PERICENTER":"79.4409","TIME_SYSTEM":"UTC","APOAPSIS":"540.628","REV_AT_EPOCH":"5764","MEAN_MOTION_DOT":"0.00006099","MEAN_MOTION":"15.08853184","ECCENTRICITY":"0.00013340","INCLINATION":"53.2155","REF_FRAME":"TEME","OBJECT_TYPE":"PAYLOAD","PERIOD":"95.437","NORAD_CAT_ID":"50812","TLE_LINE1":"1 50812U 22001K   23019.40272571  .00006099  00000-0  40083-3 0  9996","GP_ID":"223498025","RA_OF_ASC_NODE":"260.5106","DECAY_DATE":null,"SEMIMAJOR_AXIS":"6917.840","ELEMENT_SET_NO":"999","EPOCH":"2023-01-19T09:39:55.501344","MEAN_ANOMALY":"280.6734","CLASSIFICATION_TYPE":"U","COUNTRY_CODE":"US","EPHEMERIS_TYPE":"0","RCS_SIZE":"LARGE","MEAN_MOTION_DDOT":"0.0000000000000","BSTAR":"0.00040083000000","OBJECT_NAME":"STARLINK-3338","SITE":"AFETR","PERIAPSIS":"538.782","LAUNCH_DATE":"2022-01-06","OBJECT_ID":"2022-001K","MEAN_ELEMENT_THEORY":"SGP4","TLE_LINE2":"2 50812  53.2155 260.5106 0001334  79.4409 280.6734 15.08853184 57648","FILE":"3754973","CENTER_NAME":"EARTH"},{"OBJECT_ID":"2022-001L","MEAN_ELEMENT_THEORY":"SGP4","TLE_LINE2":"2 50813  53.2136 258.8859 0001251  86.7507 273.3628 15.08828930 58958","FILE":"3755129","CENTER_NAME":"EARTH","SITE":"AFETR","PERIAPSIS":"538.914","LAUNCH_DATE":"2022-01-06","CLASSIFICATION_TYPE":"U","COUNTRY_CODE":"US","EPHEMERIS_TYPE":"0","RCS_SIZE":"LARGE","BSTAR":"-0.00037087000000","MEAN_MOTION_DDOT":"0.0000000000000","OBJECT_NAME":"STARLINK-3349","DECAY_DATE":null,"RA_OF_ASC_NODE":"258.8859","SEMIMAJOR_AXIS":"6917.914","ELEMENT_SET_NO":"999","MEAN_ANOMALY":"273.3628","EPOCH":"2023-01-19T18:24:33.048288","OBJECT_TYPE":"PAYLOAD","PERIOD":"95.438","NORAD_CAT_ID":"50813","TLE_LINE1":"1 50813U 22001L   23019.76704917 -.00006184  00000-0 -37087-3 0  9997","GP_ID":"223504472","MEAN_MOTION":"15.08828930","ECCENTRICITY":"0.00012510","INCLINATION":"53.2136","REF_FRAME":"TEME","ARG_OF_PERICENTER":"86.7507","TIME_SYSTEM":"UTC","REV_AT_EPOCH":"5895","APOAPSIS":"540.645","MEAN_MOTION_DOT":"-0.00006184"},{"TLE_LINE1":"1 50814U 22001M   23019.54804815  .00004905  00000-0  32600-3 0  9995","NORAD_CAT_ID":"50814","GP_ID":"223498527","OBJECT_TYPE":"PAYLOAD","PERIOD":"95.437","INCLINATION":"53.2140","ECCENTRICITY":"0.00018730","REF_FRAME":"TEME","MEAN_MOTION":"15.08847074","APOAPSIS":"541.019","REV_AT_EPOCH":"5753","MEAN_MOTION_DOT":"0.00004905","ARG_OF_PERICENTER":"95.6179","TIME_SYSTEM":"UTC","TLE_LINE2":"2 50814  53.2140 269.8710 0001873  95.6179 264.5027 15.08847074 57534","FILE":"3754973","MEAN_ELEMENT_THEORY":"SGP4","OBJECT_ID":"2022-001M","CENTER_NAME":"EARTH","SITE":"AFETR","LAUNCH_DATE":"2022-01-06","PERIAPSIS":"538.428","RCS_SIZE":"LARGE","EPHEMERIS_TYPE":"0","OBJECT_NAME":"STARLINK-3324","MEAN_MOTION_DDOT":"0.0000000000000","BSTAR":"0.00032600000000","CLASSIFICATION_TYPE":"U","COUNTRY_CODE":"US","MEAN_ANOMALY":"264.5027","EPOCH":"2023-01-19T13:09:11.360160","RA_OF_ASC_NODE":"269.8710","DECAY_DATE":null,"ELEMENT_SET_NO":"999","SEMIMAJOR_AXIS":"6917.859"},{"EPHEMERIS_TYPE":"0","RCS_SIZE":"LARGE","MEAN_MOTION_DDOT":"0.0000000000000","BSTAR":"-0.00029524000000","OBJECT_NAME":"STARLINK-3234","CLASSIFICATION_TYPE":"U","COUNTRY_CODE":"US","MEAN_ANOMALY":"279.6236","EPOCH":"2023-01-19T15:00:28.806624","RA_OF_ASC_NODE":"269.5301","DECAY_DATE":null,"ELEMENT_SET_NO":"999","SEMIMAJOR_AXIS":"6917.911","OBJECT_ID":"2022-001N","MEAN_ELEMENT_THEORY":"SGP4","FILE":"3755232","TLE_LINE2":"2 50815  53.2120 269.5301 0001286  80.4901 279.6236 15.08829845 58816","CENTER_NAME":"EARTH","SITE":"AFETR","PERIAPSIS":"538.887","LAUNCH_DATE":"2022-01-06","APOAPSIS":"540.666","REV_AT_EPOCH":"5881","MEAN_MOTION_DOT":"-0.00004982","ARG_OF_PERICENTER":"80.4901","TIME_SYSTEM":"UTC","NORAD_CAT_ID":"50815","TLE_LINE1":"1 50815U 22001N   23019.62533341 -.00004982  00000-0 -29524-3 0  9996","GP_ID":"223507094","OBJECT_TYPE":"PAYLOAD","PERIOD":"95.438","ECCENTRICITY":"0.00012860","INCLINATION":"53.2120","REF_FRAME":"TEME","MEAN_MOTION":"15.08829845"},{"REF_FRAME":"TEME","INCLINATION":"53.2146","ECCENTRICITY":"0.00014190","MEAN_MOTION":"15.08864184","GP_ID":"223497527","TLE_LINE1":"1 50816U 22001P   23019.13220553  .00015101  00000-0  96425-3 0  9998","NORAD_CAT_ID":"50816","PERIOD":"95.436","OBJECT_TYPE":"PAYLOAD","MEAN_MOTION_DOT":"0.00015101","REV_AT_EPOCH":"5746","APOAPSIS":"540.653","TIME_SYSTEM":"UTC","ARG_OF_PERICENTER":"64.9744","LAUNCH_DATE":"2022-01-06","PERIAPSIS":"538.690","SITE":"AFETR","CENTER_NAME":"EARTH","TLE_LINE2":"2 50816  53.2146 271.7323 0001419  64.9744 295.1395 15.08864184 57468","FILE":"3754973","MEAN_ELEMENT_THEORY":"SGP4","OBJECT_ID":"2022-001P","MEAN_ANOMALY":"295.1395","EPOCH":"2023-01-19T03:10:22.557792","SEMIMAJOR_AXIS":"6917.806","ELEMENT_SET_NO":"999","DECAY_DATE":null,"RA_OF_ASC_NODE":"271.7323","OBJECT_NAME":"STARLINK-3342","BSTAR":"0.00096425000000","MEAN_MOTION_DDOT":"0.0000000000000","RCS_SIZE":"LARGE","EPHEMERIS_TYPE":"0","COUNTRY_CODE":"US","CLASSIFICATION_TYPE":"U"},{"MEAN_ELEMENT_THEORY":"SGP4","OBJECT_ID":"2022-001Q","TLE_LINE2":"2 50817  53.2113 270.4367 0000511 101.5243 258.5806 15.08847287 57512","FILE":"3754973","CENTER_NAME":"EARTH","SITE":"AFETR","PERIAPSIS":"539.370","LAUNCH_DATE":"2022-01-06","CLASSIFICATION_TYPE":"U","COUNTRY_CODE":"US","EPHEMERIS_TYPE":"0","RCS_SIZE":"LARGE","MEAN_MOTION_DDOT":"0.0000000000000","BSTAR":"0.00025607000000","OBJECT_NAME":"STARLINK-3341","RA_OF_ASC_NODE":"270.4367","DECAY_DATE":null,"SEMIMAJOR_AXIS":"6917.858","ELEMENT_SET_NO":"999","EPOCH":"2023-01-19T10:09:00.601632","MEAN_ANOMALY":"258.5806","OBJECT_TYPE":"PAYLOAD","PERIOD":"95.437","NORAD_CAT_ID":"50817","TLE_LINE1":"1 50817U 22001Q   23019.42292363  .00003791  00000-0  25607-3 0  9995","GP_ID":"223497777","MEAN_MOTION":"15.08847287","ECCENTRICITY":"0.00005110","INCLINATION":"53.2113","REF_FRAME":"TEME","ARG_OF_PERICENTER":"101.5243","TIME_SYSTEM":"UTC","APOAPSIS":"540.077","REV_AT_EPOCH":"5751","MEAN_MOTION_DOT":"0.00003791"},{"MEAN_MOTION_DOT":"-0.00007677","APOAPSIS":"540.355","REV_AT_EPOCH":"5883","TIME_SYSTEM":"UTC","ARG_OF_PERICENTER":"74.6895","REF_FRAME":"TEME","ECCENTRICITY":"0.00008170","INCLINATION":"53.2153","MEAN_MOTION":"15.08825508","GP_ID":"223507322","NORAD_CAT_ID":"50818","TLE_LINE1":"1 50818U 22001R   23019.73573240 -.00007677  00000-0 -46497-3 0  9995","PERIOD":"95.438","OBJECT_TYPE":"PAYLOAD","EPOCH":"2023-01-19T17:39:27.279360","MEAN_ANOMALY":"285.4188","SEMIMAJOR_AXIS":"6917.925","ELEMENT_SET_NO":"999","DECAY_DATE":null,"RA_OF_ASC_NODE":"269.0119","BSTAR":"-0.00046497000000","MEAN_MOTION_DDOT":"0.0000000000000","OBJECT_NAME":"STARLINK-3336","EPHEMERIS_TYPE":"0","RCS_SIZE":"LARGE","COUNTRY_CODE":"US","CLASSIFICATION_TYPE":"U","PERIAPSIS":"539.224","LAUNCH_DATE":"2022-01-06","SITE":"AFETR","CENTER_NAME":"EARTH","OBJECT_ID":"2022-001R","MEAN_ELEMENT_THEORY":"SGP4","FILE":"3755235","TLE_LINE2":"2 50818  53.2153 269.0119 0000817  74.6895 285.4188 15.08825508 58838"}];
